{"type": "FeatureCollection", "features": [ {"type": "Feature", "properties": {"norad_id": 33905, "name": "COSMOS 2251 DEB", "group": "cosmos-2251-debris", "lat": 34.15803159994554, "lon": -14.708767728933706, "alt_km": 813.4022618462277, "timestamp": "2025-12-03T08:58:46.395816+00:00", "meta": {"OBJECT_NAME": "COSMOS 2251 DEB", "OBJECT_ID": "1993-036DJ", "EPOCH": "2025-12-02T18:34:39.366336", "MEAN_MOTION": 14.35321238, "ECCENTRICITY": 0.0059493, "INCLINATION": 73.8867, "RA_OF_ASC_NODE": 335.0897, "ARG_OF_PERICENTER": 226.4458, "MEAN_ANOMALY": 309.8103, "EPHEMERIS_TYPE": 0, "CLASSIFICATION_TYPE": "U", "NORAD_CAT_ID": 33905, "ELEMENT_SET_NO": 999, "REV_AT_EPOCH": 87544, "BSTAR": 0.00099551, "MEAN_MOTION_DOT": 2.885e-05, "MEAN_MOTION_DDOT": 0}, "tle": {"line1": "1 33905U 93036DJ  25336.77406674  .00002885  00000+0  99551-3 0  9995", "line2": "2 33905  73.8867 335.0897 0059493 226.4458 309.8103 14.35321238875441"}}, "geometry": {"type": "Point", "coordinates": [-14.708767728933706, 34.15803159994554]}}, {"type": "Feature", "properties": {"norad_id": 33906, "name": "COSMOS 2251 DEB", "group": "cosmos-2251-debris", "lat": -73.78142691697361, "lon": -100.61612480431832, "alt_km": 713.758749754852, "timestamp": "2025-12-03T08:58:46.395826+00:00", "meta": {"OBJECT_NAME": "COSMOS 2251 DEB", "OBJECT_ID": "1993-036DK", "EPOCH": "2025-12-03T01:23:23.532000", "MEAN_MOTION": 14.56802177, "ECCENTRICITY": 0.0036263, "INCLINATION": 74.0306, "RA_OF_ASC_NODE": 339.8678, "ARG_OF_PERICENTER": 11.0992, "MEAN_ANOMALY": 44.3061, "EPHEMERIS_TYPE": 0, "CLASSIFICATION_TYPE": "U", "NORAD_CAT_ID": 33906, "ELEMENT_SET_NO": 999, "REV_AT_EPOCH": 87867, "BSTAR": 0.0026509, "MEAN_MOTION_DOT": 0.00011966, "MEAN_MOTION_DDOT": 0}, "tle": {"line1": "1 33906U 93036DK  25337.05791125  .00011966  00000+0  26509-2 0  9998", "line2": "2 33906  74.0306 339.8678 0036263  11.0992  44.3061 14.56802177878674"}}, "geometry": {"type": "Point", "coordinates": [-100.61612480431832, -73.78142691697361]}}, {"type": "Feature", "properties": {"norad_id": 33907, "name": "COSMOS 2251 DEB", "group": "cosmos-2251-debris", "lat": 54.662721322438294, "lon": 74.4148557129547, "alt_km": 733.1947805027048, "timestamp": "2025-12-03T08:58:46.395837+00:00", "meta": {"OBJECT_NAME": "COSMOS 2251 DEB", "OBJECT_ID": "1993-036DL", "EPOCH": "2025-12-02T16:29:31.532928", "MEAN_MOTION": 14.30354915, "ECCENTRICITY": 0.011318, "INCLINATION": 74.0705, "RA_OF_ASC_NODE": 51.9078, "ARG_OF_PERICENTER": 110.3544, "MEAN_ANOMALY": 12.7079, "EPHEMERIS_TYPE": 0, "CLASSIFICATION_TYPE": "U", "NORAD_CAT_ID": 33907, "ELEMENT_SET_NO": 999, "REV_AT_EPOCH": 86436, "BSTAR": 0.002218, "MEAN_MOTION_DOT": 6.159e-05, "MEAN_MOTION_DDOT": 0}, "tle": {"line1": "1 33907U 93036DL  25336.68717052  .00006159  00000+0  22180-2 0  9993", "line2": "2 33907  74.0705  51.9078 0113180 110.3544  12.7079 14.30354915864367"}}, "geometry": {"type": "Point", "coordinates": [74.4148557129547, 54.662721322438294]}}, {"type": "Feature", "properties": {"norad_id": 33908, "name": "COSMOS 2251 DEB", "group": "cosmos-2251-debris", "lat": 32.382738646153996, "lon": 31.785727420961177, "alt_km": 895.527510527033, "timestamp": "2025-12-03T08:58:46.395847+00:00", "meta": {"OBJECT_NAME": "COSMOS 2251 DEB", "OBJECT_ID": "1993-036DM", "EPOCH": "2025-12-03T03:08:46.862016", "MEAN_MOTION": 14.07226005, "ECCENTRICITY": 0.0223949, "INCLINATION": 73.8384, "RA_OF_ASC_NODE": 222.8141, "ARG_OF_PERICENTER": 248.0331, "MEAN_ANOMALY": 109.6872, "EPHEMERIS_TYPE": 0, "CLASSIFICATION_TYPE": "U", "NORAD_CAT_ID": 33908, "ELEMENT_SET_NO": 999, "REV_AT_EPOCH": 85338, "BSTAR": 0.0019738, "MEAN_MOTION_DOT": 4.133e-05, "MEAN_MOTION_DDOT": 0}, "tle": {"line1": "1 33908U 93036DM  25337.13109794  .00004133  00000+0  19738-2 0  9998", "line2": "2 33908  73.8384 222.8141 0223949 248.0331 109.6872 14.07226005853385"}}, "geometry": {"type": "Point", "coordinates": [31.785727420961177, 32.382738646153996]}}, {"type": "Feature", "properties": {"norad_id": 33911, "name": "COSMOS 2251 DEB", "group": "cosmos-2251-debris", "lat": 10.715802087489589, "lon": -3.0100244584782185, "alt_km": 640.4762776032767, "timestamp": "2025-12-03T08:58:46.395857+00:00", "meta": {"OBJECT_NAME": "COSMOS 2251 DEB", "OBJECT_ID": "1993-036DQ", "EPOCH": "2025-12-03T00:39:11.349216", "MEAN_MOTION": 14.74439602, "ECCENTRICITY": 0.0014543, "INCLINATION": 74.0901, "RA_OF_ASC_NODE": 180.759, "ARG_OF_PERICENTER": 127.3595, "MEAN_ANOMALY": 0.5143, "EPHEMERIS_TYPE": 0, "CLASSIFICATION_TYPE": "U", "NORAD_CAT_ID": 33911, "ELEMENT_SET_NO": 999, "REV_AT_EPOCH": 88501, "BSTAR": 0.0023227, "MEAN_MOTION_DOT": 0.00015454, "MEAN_MOTION_DDOT": 0}, "tle": {"line1": "1 33911U 93036DQ  25337.02721469  .00015454  00000+0  23227-2 0  9995", "line2": "2 33911  74.0901 180.7590 0014543 127.3595   0.5143 14.74439602885014"}}, "geometry": {"type": "Point", "coordinates": [-3.0100244584782185, 10.715802087489589]}}, {"type": "Feature", "properties": {"norad_id": 33912, "name": "COSMOS 2251 DEB", "group": "cosmos-2251-debris", "lat": 69.29035810611967, "lon": -21.85847634924822, "alt_km": 720.9003542887676, "timestamp": "2025-12-03T08:58:46.395867+00:00", "meta": {"OBJECT_NAME": "COSMOS 2251 DEB", "OBJECT_ID": "1993-036DR", "EPOCH": "2025-12-03T02:35:30.228864", "MEAN_MOTION": 14.51806999, "ECCENTRICITY": 0.0011609, "INCLINATION": 74.0338, "RA_OF_ASC_NODE": 207.8669, "ARG_OF_PERICENTER": 286.6, "MEAN_ANOMALY": 226.2064, "EPHEMERIS_TYPE": 0, "CLASSIFICATION_TYPE": "U", "NORAD_CAT_ID": 33912, "ELEMENT_SET_NO": 999, "REV_AT_EPOCH": 88293, "BSTAR": 0.0009375, "MEAN_MOTION_DOT": 3.749e-05, "MEAN_MOTION_DDOT": 0}, "tle": {"line1": "1 33912U 93036DR  25337.10798876  .00003749  00000+0  93750-3 0  9994", "line2": "2 33912  74.0338 207.8669 0011609 286.6000 226.2064 14.51806999882936"}}, "geometry": {"type": "Point", "coordinates": [-21.85847634924822, 69.29035810611967]}}, {"type": "Feature", "properties": {"norad_id": 33913, "name": "COSMOS 2251 DEB", "group": "cosmos-2251-debris", "lat": -53.431118942117564, "lon": 178.48928938552928, "alt_km": 703.2268919392445, "timestamp": "2025-12-03T08:58:46.395878+00:00", "meta": {"OBJECT_NAME": "COSMOS 2251 DEB", "OBJECT_ID": "1993-036DS", "EPOCH": "2025-12-02T16:55:27.075936", "MEAN_MOTION": 14.48421393, "ECCENTRICITY": 0.0048148, "INCLINATION": 74.0338, "RA_OF_ASC_NODE": 202.4437, "ARG_OF_PERICENTER": 306.8387, "MEAN_ANOMALY": 109.7655, "EPHEMERIS_TYPE": 0, "CLASSIFICATION_TYPE": "U", "NORAD_CAT_ID": 33913, "ELEMENT_SET_NO": 999, "REV_AT_EPOCH": 88312, "BSTAR": 0.00071202, "MEAN_MOTION_DOT": 2.679e-05, "MEAN_MOTION_DDOT": 0}, "tle": {"line1": "1 33913U 93036DS  25336.70517449  .00002679  00000+0  71202-3 0  9994", "line2": "2 33913  74.0338 202.4437 0048148 306.8387 109.7655 14.48421393883122"}}, "geometry": {"type": "Point", "coordinates": [178.48928938552928, -53.431118942117564]}}, {"type": "Feature", "properties": {"norad_id": 33914, "name": "COSMOS 2251 DEB", "group": "cosmos-2251-debris", "lat": -33.05947765315318, "lon": 19.831636220438618, "alt_km": 1217.4924306518087, "timestamp": "2025-12-03T08:58:46.395888+00:00", "meta": {"OBJECT_NAME": "COSMOS 2251 DEB", "OBJECT_ID": "1993-036DT", "EPOCH": "2025-12-03T04:12:06.390144", "MEAN_MOTION": 13.71968663, "ECCENTRICITY": 0.0302014, "INCLINATION": 74.0917, "RA_OF_ASC_NODE": 30.8571, "ARG_OF_PERICENTER": 136.1912, "MEAN_ANOMALY": 287.0728, "EPHEMERIS_TYPE": 0, "CLASSIFICATION_TYPE": "U", "NORAD_CAT_ID": 33914, "ELEMENT_SET_NO": 999, "REV_AT_EPOCH": 83950, "BSTAR": 0.00082331, "MEAN_MOTION_DOT": 1.014e-05, "MEAN_MOTION_DDOT": 0}, "tle": {"line1": "1 33914U 93036DT  25337.17507396  .00001014  00000+0  82331-3 0  9994", "line2": "2 33914  74.0917  30.8571 0302014 136.1912 287.0728 13.71968663839506"}}, "geometry": {"type": "Point", "coordinates": [19.831636220438618, -33.05947765315318]}}, {"type": "Feature", "properties": {"norad_id": 33915, "name": "COSMOS 2251 DEB", "group": "cosmos-2251-debris", "lat": 54.65072570207843, "lon": -152.5146243001766, "alt_km": 700.8198760481282, "timestamp": "2025-12-03T08:58:46.395898+00:00", "meta": {"OBJECT_NAME": "COSMOS 2251 DEB", "OBJECT_ID": "1993-036DU", "EPOCH": "2025-12-02T16:14:38.148288", "MEAN_MOTION": 14.35039779, "ECCENTRICITY": 0.0105015, "INCLINATION": 74.0449, "RA_OF_ASC_NODE": 52.548, "ARG_OF_PERICENTER": 147.726, "MEAN_ANOMALY": 333.6791, "EPHEMERIS_TYPE": 0, "CLASSIFICATION_TYPE": "U", "NORAD_CAT_ID": 33915, "ELEMENT_SET_NO": 999, "REV_AT_EPOCH": 87613, "BSTAR": 0.00069047, "MEAN_MOTION_DOT": 2.069e-05, "MEAN_MOTION_DDOT": 0}, "tle": {"line1": "1 33915U 93036DU  25336.67683042  .00002069  00000+0  69047-3 0  9992", "line2": "2 33915  74.0449  52.5480 0105015 147.7260 333.6791 14.35039779876139"}}, "geometry": {"type": "Point", "coordinates": [-152.5146243001766, 54.65072570207843]}}, {"type": "Feature", "properties": {"norad_id": 33916, "name": "COSMOS 2251 DEB", "group": "cosmos-2251-debris", "lat": -10.819217704800984, "lon": 52.844782037571214, "alt_km": 1117.9413222613239, "timestamp": "2025-12-03T08:58:46.395909+00:00", "meta": {"OBJECT_NAME": "COSMOS 2251 DEB", "OBJECT_ID": "1993-036DV", "EPOCH": "2025-12-02T23:05:04.259040", "MEAN_MOTION": 13.6859393, "ECCENTRICITY": 0.0325505, "INCLINATION": 74.0531, "RA_OF_ASC_NODE": 56.6541, "ARG_OF_PERICENTER": 230.8721, "MEAN_ANOMALY": 244.097, "EPHEMERIS_TYPE": 0, "CLASSIFICATION_TYPE": "U", "NORAD_CAT_ID": 33916, "ELEMENT_SET_NO": 999, "REV_AT_EPOCH": 83757, "BSTAR": 0.00074725, "MEAN_MOTION_DOT": 9.05e-06, "MEAN_MOTION_DDOT": 0}, "tle": {"line1": "1 33916U 93036DV  25336.96185485  .00000905  00000+0  74725-3 0  9999", "line2": "2 33916  74.0531  56.6541 0325505 230.8721 244.0970 13.68593930837577"}}, "geometry": {"type": "Point", "coordinates": [52.844782037571214, -10.819217704800984]}}]}